ATLAS CENTAUR R/B       
1 06155U 72065B   26060.24753916  .00001653  00000+0  22812-3 0  9990
2 06155  35.0029 355.2261 0034362 298.4287  61.2953 14.77659101840010
SL-8 R/B                
1 08459U 75112B   26060.92110523  .00000234  00000+0  85459-4 0  9992
2 08459  74.0611  33.2019 0014622 129.5761 230.6687 14.38198121630752
SL-3 R/B                
1 10114U 77057B   26060.94877595  .00015742  00000+0  33275-3 0  9992
2 10114  97.5754 232.5311 0006492 317.2858  42.7885 15.45233742667131
SEASAT 1                
1 10967U 78064A   26060.95632652  .00000264  00000+0  11223-3 0  9993
2 10967 108.0130 109.2719 0002117 288.8539  71.2377 14.46153232505391
SL-14 R/B               
1 11267U 79011B   26060.86741587  .00000596  00000+0  56309-4 0  9991
2 11267  82.5217 103.9950 0017640  84.4834 275.8397 14.91897157527614
SL-8 R/B                
1 11574U 79089B   26060.83852145  .00000248  00000+0  82886-4 0  9990
2 11574  74.0674 105.5785 0017096 279.0680  80.8541 14.42344468434977
SL-14 R/B               
1 11672U 80005B   26060.94240792  .00000666  00000+0  64865-4 0  9991
2 11672  82.5159 314.5843 0015496 183.6811 176.4296 14.90919293475334
SL-8 R/B                
1 12139U 81003B   26060.92013259  .00018777  00000+0  48610-3 0  9994
2 12139  82.9398 297.2075 0262776 205.6235 153.1786 15.10623213313509
SL-3 R/B                
1 12465U 81046B   26060.93196932  .00013966  00000+0  32711-3 0  9994
2 12465  81.2317 299.0586 0020188  48.5376 311.7596 15.41754950437235
SL-3 R/B                
1 12904U 81103B   26060.94532782  .00006248  00000+0  27803-3 0  9995
2 12904  81.1565 222.5167 0012615 314.6465  45.3737 15.21260118972052
SL-3 R/B                
1 13068U 82013B   26060.89092527  .00005551  00000+0  24100-3 0  9993
2 13068  81.1770 169.9084 0022257 203.9934 156.0263 15.21918705403165
SL-3 R/B                
1 13154U 82039B   26060.90404469  .00003064  00000+0  18515-3 0  9991
2 13154  81.1579 224.9379 0029896 349.8483  10.2134 15.10025436380465
