CCSDS_OMM_VERS = 2.0
CREATION_DATE  = 
ORIGINATOR     = 

OBJECT_NAME    = ATLAS CENTAUR R/B
OBJECT_ID      = 1972-065B
CENTER_NAME    = EARTH
REF_FRAME      = TEME
TIME_SYSTEM    = UTC
MEAN_ELEMENT_THEORY = SGP/SGP4

EPOCH          = 2026-03-01T05:56:27.383424
MEAN_MOTION    = 14.77659101
ECCENTRICITY   = .0034362
INCLINATION    = 35.0029
RA_OF_ASC_NODE = 355.2261
ARG_OF_PERICENTER = 298.4287
MEAN_ANOMALY   = 61.2953

EPHEMERIS_TYPE = 0
CLASSIFICATION_TYPE = U
NORAD_CAT_ID   = 6155
ELEMENT_SET_NO = 999
REV_AT_EPOCH   = 84001
BSTAR          = .22812E-3
MEAN_MOTION_DOT = .1653E-4
MEAN_MOTION_DDOT = 0

CCSDS_OMM_VERS = 2.0
CREATION_DATE  = 
ORIGINATOR     = 

OBJECT_NAME    = SL-8 R/B
OBJECT_ID      = 1975-112B
CENTER_NAME    = EARTH
REF_FRAME      = TEME
TIME_SYSTEM    = UTC
MEAN_ELEMENT_THEORY = SGP/SGP4

EPOCH          = 2026-03-01T22:06:23.491872
MEAN_MOTION    = 14.38198121
ECCENTRICITY   = .0014622
INCLINATION    = 74.0611
RA_OF_ASC_NODE = 33.2019
ARG_OF_PERICENTER = 129.5761
MEAN_ANOMALY   = 230.6687

EPHEMERIS_TYPE = 0
CLASSIFICATION_TYPE = U
NORAD_CAT_ID   = 8459
ELEMENT_SET_NO = 999
REV_AT_EPOCH   = 63075
BSTAR          = .85459175E-4
MEAN_MOTION_DOT = .234E-5
MEAN_MOTION_DDOT = 0

CCSDS_OMM_VERS = 2.0
CREATION_DATE  = 
ORIGINATOR     = 

OBJECT_NAME    = SL-3 R/B
OBJECT_ID      = 1977-057B
CENTER_NAME    = EARTH
REF_FRAME      = TEME
TIME_SYSTEM    = UTC
MEAN_ELEMENT_THEORY = SGP/SGP4

EPOCH          = 2026-03-01T22:46:14.242080
MEAN_MOTION    = 15.45233742
ECCENTRICITY   = .00064927
INCLINATION    = 97.5754
RA_OF_ASC_NODE = 232.5311
ARG_OF_PERICENTER = 317.2858
MEAN_ANOMALY   = 42.7885

EPHEMERIS_TYPE = 0
CLASSIFICATION_TYPE = U
NORAD_CAT_ID   = 10114
ELEMENT_SET_NO = 999
REV_AT_EPOCH   = 66713
BSTAR          = .33274981E-3
MEAN_MOTION_DOT = .15742E-3
MEAN_MOTION_DDOT = 0

CCSDS_OMM_VERS = 2.0
CREATION_DATE  = 
ORIGINATOR     = 

OBJECT_NAME    = SEASAT 1
OBJECT_ID      = 1978-064A
CENTER_NAME    = EARTH
REF_FRAME      = TEME
TIME_SYSTEM    = UTC
MEAN_ELEMENT_THEORY = SGP/SGP4

EPOCH          = 2026-03-01T22:57:06.611328
MEAN_MOTION    = 14.46153232
ECCENTRICITY   = .00021171
INCLINATION    = 108.0130
RA_OF_ASC_NODE = 109.2719
ARG_OF_PERICENTER = 288.8539
MEAN_ANOMALY   = 71.2377

EPHEMERIS_TYPE = 0
CLASSIFICATION_TYPE = U
NORAD_CAT_ID   = 10967
ELEMENT_SET_NO = 999
REV_AT_EPOCH   = 50539
BSTAR          = .11223217E-3
MEAN_MOTION_DOT = .264E-5
MEAN_MOTION_DDOT = 0

CCSDS_OMM_VERS = 2.0
CREATION_DATE  = 
ORIGINATOR     = 

OBJECT_NAME    = SL-14 R/B
OBJECT_ID      = 1979-011B
CENTER_NAME    = EARTH
REF_FRAME      = TEME
TIME_SYSTEM    = UTC
MEAN_ELEMENT_THEORY = SGP/SGP4

EPOCH          = 2026-03-01T20:49:04.731168
MEAN_MOTION    = 14.91897157
ECCENTRICITY   = .00176409
INCLINATION    = 82.5217
RA_OF_ASC_NODE = 103.9950
ARG_OF_PERICENTER = 84.4834
MEAN_ANOMALY   = 275.8397

EPHEMERIS_TYPE = 0
CLASSIFICATION_TYPE = U
NORAD_CAT_ID   = 11267
ELEMENT_SET_NO = 999
REV_AT_EPOCH   = 52761
BSTAR          = .56309462E-4
MEAN_MOTION_DOT = .596E-5
MEAN_MOTION_DDOT = 0

CCSDS_OMM_VERS = 2.0
CREATION_DATE  = 
ORIGINATOR     = 

OBJECT_NAME    = SL-8 R/B
OBJECT_ID      = 1979-089B
CENTER_NAME    = EARTH
REF_FRAME      = TEME
TIME_SYSTEM    = UTC
MEAN_ELEMENT_THEORY = SGP/SGP4

EPOCH          = 2026-03-01T20:07:28.253280
MEAN_MOTION    = 14.42344468
ECCENTRICITY   = .00170965
INCLINATION    = 74.0674
RA_OF_ASC_NODE = 105.5785
ARG_OF_PERICENTER = 279.0680
MEAN_ANOMALY   = 80.8541

EPHEMERIS_TYPE = 0
CLASSIFICATION_TYPE = U
NORAD_CAT_ID   = 11574
ELEMENT_SET_NO = 999
REV_AT_EPOCH   = 43497
BSTAR          = .82886399E-4
MEAN_MOTION_DOT = .248E-5
MEAN_MOTION_DDOT = 0

CCSDS_OMM_VERS = 2.0
CREATION_DATE  = 
ORIGINATOR     = 

OBJECT_NAME    = SL-14 R/B
OBJECT_ID      = 1980-005B
CENTER_NAME    = EARTH
REF_FRAME      = TEME
TIME_SYSTEM    = UTC
MEAN_ELEMENT_THEORY = SGP/SGP4

EPOCH          = 2026-03-01T22:37:04.044288
MEAN_MOTION    = 14.90919293
ECCENTRICITY   = .00154967
INCLINATION    = 82.5159
RA_OF_ASC_NODE = 314.5843
ARG_OF_PERICENTER = 183.6811
MEAN_ANOMALY   = 176.4296

EPHEMERIS_TYPE = 0
CLASSIFICATION_TYPE = U
NORAD_CAT_ID   = 11672
ELEMENT_SET_NO = 999
REV_AT_EPOCH   = 47533
BSTAR          = .64864706E-4
MEAN_MOTION_DOT = .666E-5
MEAN_MOTION_DDOT = 0

CCSDS_OMM_VERS = 2.0
CREATION_DATE  = 
ORIGINATOR     = 

OBJECT_NAME    = SL-8 R/B
OBJECT_ID      = 1981-003B
CENTER_NAME    = EARTH
REF_FRAME      = TEME
TIME_SYSTEM    = UTC
MEAN_ELEMENT_THEORY = SGP/SGP4

EPOCH          = 2026-03-01T22:04:59.455776
MEAN_MOTION    = 15.10623213
ECCENTRICITY   = .02627761
INCLINATION    = 82.9398
RA_OF_ASC_NODE = 297.2075
ARG_OF_PERICENTER = 205.6235
MEAN_ANOMALY   = 153.1786

EPHEMERIS_TYPE = 0
CLASSIFICATION_TYPE = U
NORAD_CAT_ID   = 12139
ELEMENT_SET_NO = 999
REV_AT_EPOCH   = 31350
BSTAR          = .48609678E-3
MEAN_MOTION_DOT = .18777E-3
MEAN_MOTION_DDOT = 0

CCSDS_OMM_VERS = 2.0
CREATION_DATE  = 
ORIGINATOR     = 

OBJECT_NAME    = SL-3 R/B
OBJECT_ID      = 1981-046B
CENTER_NAME    = EARTH
REF_FRAME      = TEME
TIME_SYSTEM    = UTC
MEAN_ELEMENT_THEORY = SGP/SGP4

EPOCH          = 2026-03-01T22:22:02.149248
MEAN_MOTION    = 15.41754950
ECCENTRICITY   = .00201887
INCLINATION    = 81.2317
RA_OF_ASC_NODE = 299.0586
ARG_OF_PERICENTER = 48.5376
MEAN_ANOMALY   = 311.7596

EPHEMERIS_TYPE = 0
CLASSIFICATION_TYPE = U
NORAD_CAT_ID   = 12465
ELEMENT_SET_NO = 999
REV_AT_EPOCH   = 43723
BSTAR          = .32710769E-3
MEAN_MOTION_DOT = .13966E-3
MEAN_MOTION_DDOT = 0

CCSDS_OMM_VERS = 2.0
CREATION_DATE  = 
ORIGINATOR     = 

OBJECT_NAME    = SL-3 R/B
OBJECT_ID      = 1981-103B
CENTER_NAME    = EARTH
REF_FRAME      = TEME
TIME_SYSTEM    = UTC
MEAN_ELEMENT_THEORY = SGP/SGP4

EPOCH          = 2026-03-01T22:41:16.323648
MEAN_MOTION    = 15.21260118
ECCENTRICITY   = .00126157
INCLINATION    = 81.1565
RA_OF_ASC_NODE = 222.5167
ARG_OF_PERICENTER = 314.6465
MEAN_ANOMALY   = 45.3737

EPHEMERIS_TYPE = 0
CLASSIFICATION_TYPE = U
NORAD_CAT_ID   = 12904
ELEMENT_SET_NO = 999
REV_AT_EPOCH   = 97205
BSTAR          = .27802593E-3
MEAN_MOTION_DOT = .6248E-4
MEAN_MOTION_DDOT = 0

CCSDS_OMM_VERS = 2.0
CREATION_DATE  = 
ORIGINATOR     = 

OBJECT_NAME    = SL-3 R/B
OBJECT_ID      = 1982-013B
CENTER_NAME    = EARTH
REF_FRAME      = TEME
TIME_SYSTEM    = UTC
MEAN_ELEMENT_THEORY = SGP/SGP4

EPOCH          = 2026-03-01T21:22:55.943328
MEAN_MOTION    = 15.21918705
ECCENTRICITY   = .00222578
INCLINATION    = 81.1770
RA_OF_ASC_NODE = 169.9084
ARG_OF_PERICENTER = 203.9934
MEAN_ANOMALY   = 156.0263

EPHEMERIS_TYPE = 0
CLASSIFICATION_TYPE = U
NORAD_CAT_ID   = 13068
ELEMENT_SET_NO = 999
REV_AT_EPOCH   = 40316
BSTAR          = .24099737E-3
MEAN_MOTION_DOT = .5551E-4
MEAN_MOTION_DDOT = 0

CCSDS_OMM_VERS = 2.0
CREATION_DATE  = 
ORIGINATOR     = 

OBJECT_NAME    = SL-3 R/B
OBJECT_ID      = 1982-039B
CENTER_NAME    = EARTH
REF_FRAME      = TEME
TIME_SYSTEM    = UTC
MEAN_ELEMENT_THEORY = SGP/SGP4

EPOCH          = 2026-03-01T21:41:49.461216
MEAN_MOTION    = 15.10025436
ECCENTRICITY   = .00298969
INCLINATION    = 81.1579
RA_OF_ASC_NODE = 224.9379
ARG_OF_PERICENTER = 349.8483
MEAN_ANOMALY   = 10.2134

EPHEMERIS_TYPE = 0
CLASSIFICATION_TYPE = U
NORAD_CAT_ID   = 13154
ELEMENT_SET_NO = 999
REV_AT_EPOCH   = 38046
BSTAR          = .18515051E-3
MEAN_MOTION_DOT = .3064E-4
MEAN_MOTION_DDOT = 0

